[
  {
    "OBJECT_NAME": "LEGION 2",
    "OBJECT_ID": "2024-081B",
    "EPOCH": "2025-05-24T20:11:56.779296",
    "MEAN_MOTION": 15.16584507,
    "ECCENTRICITY": 0.0003428,
    "INCLINATION": 97.5373,
    "RA_OF_ASC_NODE": 220.9102,
    "ARG_OF_PERICENTER": 125.5231,
    "MEAN_ANOMALY": 234.6322,
    "EPHEMERIS_TYPE": 0,
    "CLASSIFICATION_TYPE": "U",
    "NORAD_CAT_ID": 59626,
    "ELEMENT_SET_NO": 999,
    "REV_AT_EPOCH": 5867,
    "BSTAR": 0.00019465,
    "MEAN_MOTION_DOT": 3.733e-05,
    "MEAN_MOTION_DDOT": 0
  },
  {
    "OBJECT_NAME": "ALOS-4 (DAICHI-4)",
    "OBJECT_ID": "2024-123A",
    "EPOCH": "2025-05-24T19:27:23.234976",
    "MEAN_MOTION": 14.79467835,
    "ECCENTRICITY": 0.0001575,
    "INCLINATION": 97.9233,
    "RA_OF_ASC_NODE": 242.555,
    "ARG_OF_PERICENTER": 99.4207,
    "MEAN_ANOMALY": 260.7183,
    "EPHEMERIS_TYPE": 0,
    "CLASSIFICATION_TYPE": "U",
    "NORAD_CAT_ID": 60182,
    "ELEMENT_SET_NO": 999,
    "REV_AT_EPOCH": 4845,
    "BSTAR": 9.2547e-05,
    "MEAN_MOTION_DOT": 6.4e-06,
    "MEAN_MOTION_DDOT": 0
  },
  {
    "OBJECT_NAME": "LEGION 3",
    "OBJECT_ID": "2024-146A",
    "EPOCH": "2025-05-24T20:02:54.106944",
    "MEAN_MOTION": 15.16286106,
    "ECCENTRICITY": 0.0025281,
    "INCLINATION": 45.0018,
    "RA_OF_ASC_NODE": 312.6688,
    "ARG_OF_PERICENTER": 154.5008,
    "MEAN_ANOMALY": 205.7123,
    "EPHEMERIS_TYPE": 0,
    "CLASSIFICATION_TYPE": "U",
    "NORAD_CAT_ID": 60452,
    "ELEMENT_SET_NO": 999,
    "REV_AT_EPOCH": 4309,
    "BSTAR": 0.00024487,
    "MEAN_MOTION_DOT": 4.591e-05,
    "MEAN_MOTION_DDOT": 0
  },
  {
    "OBJECT_NAME": "LEGION 4",
    "OBJECT_ID": "2024-146B",
    "EPOCH": "2025-05-24T13:43:35.489856",
    "MEAN_MOTION": 15.16449043,
    "ECCENTRICITY": 0.0006488,
    "INCLINATION": 45.0388,
    "RA_OF_ASC_NODE": 45.1274,
    "ARG_OF_PERICENTER": 189.8284,
    "MEAN_ANOMALY": 170.247,
    "EPHEMERIS_TYPE": 0,
    "CLASSIFICATION_TYPE": "U",
    "NORAD_CAT_ID": 60453,
    "ELEMENT_SET_NO": 999,
    "REV_AT_EPOCH": 4190,
    "BSTAR": 0.0002172,
    "MEAN_MOTION_DOT": 4.035e-05,
    "MEAN_MOTION_DDOT": 0
  },
  {
    "OBJECT_NAME": "SENTINEL-2C",
    "OBJECT_ID": "2024-157A",
    "EPOCH": "2025-05-24T17:04:10.530336",
    "MEAN_MOTION": 14.30813577,
    "ECCENTRICITY": 0.0001202,
    "INCLINATION": 98.5688,
    "RA_OF_ASC_NODE": 220.1464,
    "ARG_OF_PERICENTER": 95.9543,
    "MEAN_ANOMALY": 264.1777,
    "EPHEMERIS_TYPE": 0,
    "CLASSIFICATION_TYPE": "U",
    "NORAD_CAT_ID": 60989,
    "ELEMENT_SET_NO": 999,
    "REV_AT_EPOCH": 3743,
    "BSTAR": 5.5918e-05,
    "MEAN_MOTION_DOT": 1.03e-06,
    "MEAN_MOTION_DDOT": 0
  },
  {
    "OBJECT_NAME": "BIOMASS",
    "OBJECT_ID": "2025-090A",
    "EPOCH": "2025-05-22T01:46:44.861376",
    "MEAN_MOTION": 14.69152786,
    "ECCENTRICITY": 0.0001408,
    "INCLINATION": 98.0761,
    "RA_OF_ASC_NODE": 329.9868,
    "ARG_OF_PERICENTER": 88.9543,
    "MEAN_ANOMALY": 271.1823,
    "EPHEMERIS_TYPE": 0,
    "CLASSIFICATION_TYPE": "U",
    "NORAD_CAT_ID": 63772,
    "ELEMENT_SET_NO": 999,
    "REV_AT_EPOCH": 332,
    "BSTAR": 0.00021024,
    "MEAN_MOTION_DOT": 1.188e-05,
    "MEAN_MOTION_DDOT": 0
  }
]